SZ-21 MODULE            
1 66515U 25246C   25327.93137786  .00028971  00000+0  33497-3 0  9990
2 66515  41.4753 130.6686 0004663 134.1309 225.9914 15.61215711  1507
